start=new Date('2023-04-26T00:00:00.000Z').valueOf();
sats=[{"NORAD_CAT_ID":"52275","REV_AT_EPOCH":"5596","BSTAR":"-0.00030837000000","ECCENTRICITY":"0.00010930","SITE":"AFETR","TLE_LINE2":"2 52275  53.2138 139.3848 0001093  76.2769 283.8345 15.08823758 55966","CENTER_NAME":"EARTH","CLASSIFICATION_TYPE":"U","EPHEMERIS_TYPE":"0","MEAN_ELEMENT_THEORY":"SGP4","COUNTRY_CODE":"US","DECAY_DATE":null,"REF_FRAME":"TEME","LAUNCH_DATE":"2022-04-21","ARG_OF_PERICENTER":"76.2769","PERIAPSIS":"539.039","MEAN_MOTION_DDOT":"0.0000000000000","GP_ID":"230744104","RCS_SIZE":"LARGE","OBJECT_ID":"2022-041Q","OBJECT_TYPE":"PAYLOAD","INCLINATION":"53.2138","FILE":"3894092","MEAN_MOTION":"15.08823758","ELEMENT_SET_NO":"999","OBJECT_NAME":"STARLINK-3784","TLE_LINE1":"1 52275U 22041Q   23115.43975071 -.00005190  00000-0 -30837-3 0  9999","TIME_SYSTEM":"UTC","MEAN_MOTION_DOT":"-0.00005190","EPOCH":"2023-04-25T10:33:14.461344","APOAPSIS":"540.551","MEAN_ANOMALY":"283.8345","SEMIMAJOR_AXIS":"6917.930","PERIOD":"95.439","RA_OF_ASC_NODE":"139.3848"},{"COUNTRY_CODE":"US","DECAY_DATE":null,"REF_FRAME":"TEME","CENTER_NAME":"EARTH","TLE_LINE2":"2 52276  53.2154 140.0263 0001442  98.0552 262.0604 15.08834947 55942","MEAN_ELEMENT_THEORY":"SGP4","EPHEMERIS_TYPE":"0","CLASSIFICATION_TYPE":"U","SITE":"AFETR","BSTAR":"-0.00006134000000","ECCENTRICITY":"0.00014420","REV_AT_EPOCH":"5594","NORAD_CAT_ID":"52276","INCLINATION":"53.2154","OBJECT_ID":"2022-041R","RCS_SIZE":"LARGE","OBJECT_TYPE":"PAYLOAD","GP_ID":"230742852","MEAN_MOTION_DDOT":"0.0000000000000","PERIAPSIS":"538.763","LAUNCH_DATE":"2022-04-21","ARG_OF_PERICENTER":"98.0552","OBJECT_NAME":"STARLINK-3778","ELEMENT_SET_NO":"999","TLE_LINE1":"1 52276U 22041R   23115.29622794 -.00001264  00000-0 -61340-4 0  9997","MEAN_MOTION":"15.08834947","FILE":"3894092","RA_OF_ASC_NODE":"140.0263","MEAN_ANOMALY":"262.0604","SEMIMAJOR_AXIS":"6917.896","PERIOD":"95.438","APOAPSIS":"540.758","EPOCH":"2023-04-25T07:06:34.094016","TIME_SYSTEM":"UTC","MEAN_MOTION_DOT":"-0.00001264"},{"TIME_SYSTEM":"UTC","MEAN_MOTION_DOT":"0.00029813","EPOCH":"2023-04-25T13:13:33.465792","APOAPSIS":"519.388","SEMIMAJOR_AXIS":"6893.271","MEAN_ANOMALY":"346.9322","PERIOD":"94.929","RA_OF_ASC_NODE":"136.6174","FILE":"3894129","MEAN_MOTION":"15.16927187","OBJECT_NAME":"STARLINK-3787","ELEMENT_SET_NO":"999","TLE_LINE1":"1 52277U 22041S   23115.55108178  .00029813  00000-0  15028-2 0  9990","LAUNCH_DATE":"2022-04-21","ARG_OF_PERICENTER":"13.1834","PERIAPSIS":"510.884","MEAN_MOTION_DDOT":"0.0000000000000","GP_ID":"230747016","RCS_SIZE":"LARGE","OBJECT_ID":"2022-041S","OBJECT_TYPE":"PAYLOAD","INCLINATION":"53.2128","NORAD_CAT_ID":"52277","REV_AT_EPOCH":"5723","BSTAR":"0.00150280000000","ECCENTRICITY":"0.00061690","SITE":"AFETR","TLE_LINE2":"2 52277  53.2128 136.6174 0006169  13.1834 346.9322 15.16927187 57239","CENTER_NAME":"EARTH","EPHEMERIS_TYPE":"0","CLASSIFICATION_TYPE":"U","MEAN_ELEMENT_THEORY":"SGP4","COUNTRY_CODE":"US","DECAY_DATE":null,"REF_FRAME":"TEME"},{"MEAN_MOTION":"15.08832415","ELEMENT_SET_NO":"999","OBJECT_NAME":"STARLINK-3780","TLE_LINE1":"1 52278U 22041T   23115.49126916 -.00002549  00000-0 -14216-3 0  9992","FILE":"3894092","APOAPSIS":"540.606","MEAN_ANOMALY":"255.6459","SEMIMAJOR_AXIS":"6917.904","PERIOD":"95.438","RA_OF_ASC_NODE":"139.1521","TIME_SYSTEM":"UTC","MEAN_MOTION_DOT":"-0.00002549","EPOCH":"2023-04-25T11:47:25.655424","SITE":"AFETR","CENTER_NAME":"EARTH","TLE_LINE2":"2 52278  53.2145 139.1521 0001211 104.4667 255.6459 15.08832415 55970","MEAN_ELEMENT_THEORY":"SGP4","CLASSIFICATION_TYPE":"U","EPHEMERIS_TYPE":"0","COUNTRY_CODE":"US","REF_FRAME":"TEME","DECAY_DATE":null,"NORAD_CAT_ID":"52278","REV_AT_EPOCH":"5597","BSTAR":"-0.00014216000000","ECCENTRICITY":"0.00012110","MEAN_MOTION_DDOT":"0.0000000000000","GP_ID":"230743854","OBJECT_ID":"2022-041T","RCS_SIZE":"LARGE","OBJECT_TYPE":"PAYLOAD","INCLINATION":"53.2145","LAUNCH_DATE":"2022-04-21","ARG_OF_PERICENTER":"104.4667","PERIAPSIS":"538.931"},{"LAUNCH_DATE":"2022-04-21","ARG_OF_PERICENTER":"30.9138","PERIAPSIS":"505.574","OBJECT_ID":"2022-041U","RCS_SIZE":"LARGE","OBJECT_TYPE":"PAYLOAD","INCLINATION":"53.2155","MEAN_MOTION_DDOT":"0.0000000000000","GP_ID":"230747385","ECCENTRICITY":"0.00045520","BSTAR":"0.00116930000000","NORAD_CAT_ID":"52279","REV_AT_EPOCH":"5727","COUNTRY_CODE":"US","DECAY_DATE":null,"REF_FRAME":"TEME","SITE":"AFETR","CENTER_NAME":"EARTH","TLE_LINE2":"2 52279  53.2155 133.8975 0004552  30.9138 329.2125 15.19051297 57279","CLASSIFICATION_TYPE":"U","EPHEMERIS_TYPE":"0","MEAN_ELEMENT_THEORY":"SGP4","EPOCH":"2023-04-25T13:11:25.332000","TIME_SYSTEM":"UTC","MEAN_MOTION_DOT":"0.00024575","RA_OF_ASC_NODE":"133.8975","APOAPSIS":"511.843","MEAN_ANOMALY":"329.2125","SEMIMAJOR_AXIS":"6886.844","PERIOD":"94.796","FILE":"3894129","OBJECT_NAME":"STARLINK-3686","ELEMENT_SET_NO":"999","TLE_LINE1":"1 52279U 22041U   23115.54959875  .00024575  00000-0  11693-2 0  9993","MEAN_MOTION":"15.19051297"},{"MEAN_ELEMENT_THEORY":"SGP4","EPHEMERIS_TYPE":"0","CLASSIFICATION_TYPE":"U","TLE_LINE2":"2 52280  53.2156 139.2011 0001003  93.6052 266.5054 15.08829655 55970","CENTER_NAME":"EARTH","SITE":"AFETR","REF_FRAME":"TEME","DECAY_DATE":null,"COUNTRY_CODE":"US","REV_AT_EPOCH":"5597","NORAD_CAT_ID":"52280","ECCENTRICITY":"0.00010030","BSTAR":"-0.00009054400000","GP_ID":"230742353","MEAN_MOTION_DDOT":"0.0000000000000","INCLINATION":"53.2156","OBJECT_TYPE":"PAYLOAD","OBJECT_ID":"2022-041V","RCS_SIZE":"LARGE","PERIAPSIS":"539.083","ARG_OF_PERICENTER":"93.6052","LAUNCH_DATE":"2022-04-21","MEAN_MOTION":"15.08829655","TLE_LINE1":"1 52280U 22041V   23115.48023882 -.00001728  00000-0 -90544-4 0  9999","OBJECT_NAME":"STARLINK-3764","ELEMENT_SET_NO":"999","FILE":"3894092","PERIOD":"95.438","SEMIMAJOR_AXIS":"6917.912","MEAN_ANOMALY":"266.5054","APOAPSIS":"540.471","RA_OF_ASC_NODE":"139.2011","MEAN_MOTION_DOT":"-0.00001728","TIME_SYSTEM":"UTC","EPOCH":"2023-04-25T11:31:32.634048"},{"NORAD_CAT_ID":"52281","REV_AT_EPOCH":"5596","BSTAR":"-0.00012290000000","ECCENTRICITY":"0.00012160","SITE":"AFETR","TLE_LINE2":"2 52281  53.2163 139.4254 0001216  92.4372 267.6760 15.08829834 55962","CENTER_NAME":"EARTH","EPHEMERIS_TYPE":"0","CLASSIFICATION_TYPE":"U","MEAN_ELEMENT_THEORY":"SGP4","COUNTRY_CODE":"US","DECAY_DATE":null,"REF_FRAME":"TEME","LAUNCH_DATE":"2022-04-21","ARG_OF_PERICENTER":"92.4372","PERIAPSIS":"538.935","MEAN_MOTION_DDOT":"0.0000000000000","GP_ID":"230743103","OBJECT_ID":"2022-041W","RCS_SIZE":"LARGE","OBJECT_TYPE":"PAYLOAD","INCLINATION":"53.2163","FILE":"3894092","MEAN_MOTION":"15.08829834","OBJECT_NAME":"STARLINK-3779","ELEMENT_SET_NO":"999","TLE_LINE1":"1 52281U 22041W   23115.42966934 -.00002243  00000-0 -12290-3 0  9992","TIME_SYSTEM":"UTC","MEAN_MOTION_DOT":"-0.00002243","EPOCH":"2023-04-25T10:18:43.430976","APOAPSIS":"540.618","MEAN_ANOMALY":"267.6760","SEMIMAJOR_AXIS":"6917.911","PERIOD":"95.438","RA_OF_ASC_NODE":"139.4254"},{"PERIAPSIS":"538.952","LAUNCH_DATE":"2022-04-21","ARG_OF_PERICENTER":"91.1088","INCLINATION":"53.2150","OBJECT_ID":"2022-041X","RCS_SIZE":"LARGE","OBJECT_TYPE":"PAYLOAD","GP_ID":"230743354","MEAN_MOTION_DDOT":"0.0000000000000","ECCENTRICITY":"0.00011860","BSTAR":"-0.00006424000000","REV_AT_EPOCH":"5610","NORAD_CAT_ID":"52282","COUNTRY_CODE":"US","DECAY_DATE":null,"REF_FRAME":"TEME","CENTER_NAME":"EARTH","TLE_LINE2":"2 52282  53.2150 129.2366 0001186  91.1088 269.0040 15.08831068 56102","CLASSIFICATION_TYPE":"U","MEAN_ELEMENT_THEORY":"SGP4","EPHEMERIS_TYPE":"0","SITE":"AFETR","EPOCH":"2023-04-25T11:23:38.406048","TIME_SYSTEM":"UTC","MEAN_MOTION_DOT":"-0.00001310","RA_OF_ASC_NODE":"129.2366","SEMIMAJOR_AXIS":"6917.908","MEAN_ANOMALY":"269.0040","PERIOD":"95.438","APOAPSIS":"540.593","FILE":"3894092","OBJECT_NAME":"STARLINK-3783","ELEMENT_SET_NO":"999","TLE_LINE1":"1 52282U 22041X   23115.47475007 -.00001310  00000-0 -64240-4 0  9991","MEAN_MOTION":"15.08831068"},{"COUNTRY_CODE":"US","DECAY_DATE":null,"REF_FRAME":"TEME","SITE":"AFETR","CENTER_NAME":"EARTH","TLE_LINE2":"2 52283  53.2145 139.7638 0001293  88.4090 271.7051 15.08828032 55957","MEAN_ELEMENT_THEORY":"SGP4","CLASSIFICATION_TYPE":"U","EPHEMERIS_TYPE":"0","ECCENTRICITY":"0.00012930","BSTAR":"-0.00022223000000","NORAD_CAT_ID":"52283","REV_AT_EPOCH":"5595","RCS_SIZE":"LARGE","OBJECT_ID":"2022-041Y","OBJECT_TYPE":"PAYLOAD","INCLINATION":"53.2145","MEAN_MOTION_DDOT":"0.0000000000000","GP_ID":"230744105","LAUNCH_DATE":"2022-04-21","ARG_OF_PERICENTER":"88.4090","PERIAPSIS":"538.887","ELEMENT_SET_NO":"999","OBJECT_NAME":"STARLINK-3789","TLE_LINE1":"1 52283U 22041Y   23115.35511497 -.00003822  00000-0 -22223-3 0  9997","MEAN_MOTION":"15.08828032","FILE":"3894092","RA_OF_ASC_NODE":"139.7638","APOAPSIS":"540.676","SEMIMAJOR_AXIS":"6917.917","MEAN_ANOMALY":"271.7051","PERIOD":"95.438","EPOCH":"2023-04-25T08:31:21.933408","TIME_SYSTEM":"UTC","MEAN_MOTION_DOT":"-0.00003822"},{"APOAPSIS":"540.709","PERIOD":"95.438","MEAN_ANOMALY":"255.8014","SEMIMAJOR_AXIS":"6917.897","RA_OF_ASC_NODE":"128.9672","MEAN_MOTION_DOT":"0.00000124","TIME_SYSTEM":"UTC","EPOCH":"2023-04-25T12:47:02.853888","MEAN_MOTION":"15.08834527","TLE_LINE1":"1 52284U 22041Z   23115.53267192  .00000124  00000-0  25890-4 0  9992","ELEMENT_SET_NO":"999","OBJECT_NAME":"STARLINK-3561","FILE":"3894092","MEAN_MOTION_DDOT":"0.0000000000000","GP_ID":"230742853","OBJECT_TYPE":"PAYLOAD","OBJECT_ID":"2022-041Z","RCS_SIZE":"LARGE","INCLINATION":"53.2161","ARG_OF_PERICENTER":"104.3130","LAUNCH_DATE":"2022-04-21","PERIAPSIS":"538.815","SITE":"AFETR","EPHEMERIS_TYPE":"0","MEAN_ELEMENT_THEORY":"SGP4","CLASSIFICATION_TYPE":"U","CENTER_NAME":"EARTH","TLE_LINE2":"2 52284  53.2161 128.9672 0001369 104.3130 255.8014 15.08834527 56118","REF_FRAME":"TEME","DECAY_DATE":null,"COUNTRY_CODE":"US","NORAD_CAT_ID":"52284","REV_AT_EPOCH":"5611","BSTAR":"0.00002589000000","ECCENTRICITY":"0.00013690"}];
